{
  "links" : {
    "next" : "https://api.nasa.gov/neo/rest/v1/feed?start_date=2009-01-09&end_date=2009-01-09&detailed=true&api_key=t0TVs3DtDT2H8Oy2Zy8m2eVrNsAVKAexjcZXUckd",
    "prev" : "https://api.nasa.gov/neo/rest/v1/feed?start_date=2009-01-07&end_date=2009-01-07&detailed=true&api_key=t0TVs3DtDT2H8Oy2Zy8m2eVrNsAVKAexjcZXUckd",
    "self" : "https://api.nasa.gov/neo/rest/v1/feed?start_date=2009-01-08&end_date=2009-01-08&detailed=true&api_key=t0TVs3DtDT2H8Oy2Zy8m2eVrNsAVKAexjcZXUckd"
  },
  "element_count" : 5,
  "near_earth_objects" : {
    "2009-01-08" : [ {
      "links" : {
        "self" : "https://api.nasa.gov/neo/rest/v1/neo/2455184?api_key=t0TVs3DtDT2H8Oy2Zy8m2eVrNsAVKAexjcZXUckd"
      },
      "neo_reference_id" : "2455184",
      "name" : "455184 (2000 ED14)",
      "nasa_jpl_url" : "http://ssd.jpl.nasa.gov/sbdb.cgi?sstr=2455184",
      "absolute_magnitude_h" : 20.8,
      "estimated_diameter" : {
        "kilometers" : {
          "estimated_diameter_min" : 0.1838886721,
          "estimated_diameter_max" : 0.411187571
        },
        "meters" : {
          "estimated_diameter_min" : 183.8886720703,
          "estimated_diameter_max" : 411.1875710413
        },
        "miles" : {
          "estimated_diameter_min" : 0.1142630881,
          "estimated_diameter_max" : 0.2555000322
        },
        "feet" : {
          "estimated_diameter_min" : 603.309310875,
          "estimated_diameter_max" : 1349.040630575
        }
      },
      "is_potentially_hazardous_asteroid" : true,
      "close_approach_data" : [ {
        "close_approach_date" : "2009-01-08",
        "epoch_date_close_approach" : 1231401600000,
        "relative_velocity" : {
          "kilometers_per_second" : "12.66809995",
          "kilometers_per_hour" : "45605.1598201156",
          "miles_per_hour" : "28337.2727782268"
        },
        "miss_distance" : {
          "astronomical" : "0.3464168046",
          "lunar" : "134.7561340332",
          "kilometers" : "51823216",
          "miles" : "32201454"
        },
        "orbiting_body" : "Earth"
      } ],
      "orbital_data" : {
        "orbit_id" : "41",
        "orbit_determination_date" : "2017-04-06 09:20:00",
        "orbit_uncertainty" : "0",
        "minimum_orbit_intersection" : ".0352052",
        "jupiter_tisserand_invariant" : "6.873",
        "epoch_osculation" : "2458000.5",
        "eccentricity" : ".566597346716099",
        "semi_major_axis" : ".834975579725165",
        "inclination" : "13.77751285862119",
        "ascending_node_longitude" : "3.897737302613137",
        "orbital_period" : "278.6821085797503",
        "perihelion_distance" : ".3618806316801499",
        "perihelion_argument" : "310.1051457156609",
        "aphelion_distance" : "1.30807052777018",
        "perihelion_time" : "2458090.668059508109",
        "mean_anomaly" : "243.5214015411758",
        "mean_motion" : "1.29179444577433",
        "equinox" : "J2000"
      }
    }, {
      "links" : {
        "self" : "https://api.nasa.gov/neo/rest/v1/neo/3102762?api_key=t0TVs3DtDT2H8Oy2Zy8m2eVrNsAVKAexjcZXUckd"
      },
      "neo_reference_id" : "3102762",
      "name" : "(2002 AA29)",
      "nasa_jpl_url" : "http://ssd.jpl.nasa.gov/sbdb.cgi?sstr=3102762",
      "absolute_magnitude_h" : 24.1,
      "estimated_diameter" : {
        "kilometers" : {
          "estimated_diameter_min" : 0.040230458,
          "estimated_diameter_max" : 0.0899580388
        },
        "meters" : {
          "estimated_diameter_min" : 40.2304579834,
          "estimated_diameter_max" : 89.9580388169
        },
        "miles" : {
          "estimated_diameter_min" : 0.0249980399,
          "estimated_diameter_max" : 0.0558973165
        },
        "feet" : {
          "estimated_diameter_min" : 131.9896957704,
          "estimated_diameter_max" : 295.1379320721
        }
      },
      "is_potentially_hazardous_asteroid" : false,
      "close_approach_data" : [ {
        "close_approach_date" : "2009-01-08",
        "epoch_date_close_approach" : 1231401600000,
        "relative_velocity" : {
          "kilometers_per_second" : "11.0727091623",
          "kilometers_per_hour" : "39861.7529842526",
          "miles_per_hour" : "24768.5431251319"
        },
        "miss_distance" : {
          "astronomical" : "0.3025228413",
          "lunar" : "117.6813812256",
          "kilometers" : "45256772",
          "miles" : "28121254"
        },
        "orbiting_body" : "Earth"
      } ],
      "orbital_data" : {
        "orbit_id" : "21",
        "orbit_determination_date" : "2017-04-06 09:15:33",
        "orbit_uncertainty" : "0",
        "minimum_orbit_intersection" : ".012946",
        "jupiter_tisserand_invariant" : "6.101",
        "epoch_osculation" : "2458000.5",
        "eccentricity" : ".01296125557883429",
        "semi_major_axis" : ".9925462692961411",
        "inclination" : "10.74760091756775",
        "ascending_node_longitude" : "106.3717237836368",
        "orbital_period" : "361.1807278371487",
        "perihelion_distance" : ".9796816234259753",
        "perihelion_argument" : "101.6388260670472",
        "aphelion_distance" : "1.005410915166307",
        "perihelion_time" : "2458172.580482216544",
        "mean_anomaly" : "188.4820622381388",
        "mean_motion" : ".9967309223716914",
        "equinox" : "J2000"
      }
    }, {
      "links" : {
        "self" : "https://api.nasa.gov/neo/rest/v1/neo/3555016?api_key=t0TVs3DtDT2H8Oy2Zy8m2eVrNsAVKAexjcZXUckd"
      },
      "neo_reference_id" : "3555016",
      "name" : "(2011 AC3)",
      "nasa_jpl_url" : "http://ssd.jpl.nasa.gov/sbdb.cgi?sstr=3555016",
      "absolute_magnitude_h" : 22.4,
      "estimated_diameter" : {
        "kilometers" : {
          "estimated_diameter_min" : 0.0880146521,
          "estimated_diameter_max" : 0.1968067451
        },
        "meters" : {
          "estimated_diameter_min" : 88.0146520901,
          "estimated_diameter_max" : 196.8067450894
        },
        "miles" : {
          "estimated_diameter_min" : 0.0546897524,
          "estimated_diameter_max" : 0.122290004
        },
        "feet" : {
          "estimated_diameter_min" : 288.7619911632,
          "estimated_diameter_max" : 645.6914415591
        }
      },
      "is_potentially_hazardous_asteroid" : false,
      "close_approach_data" : [ {
        "close_approach_date" : "2009-01-08",
        "epoch_date_close_approach" : 1231401600000,
        "relative_velocity" : {
          "kilometers_per_second" : "14.4272040036",
          "kilometers_per_hour" : "51937.9344129596",
          "miles_per_hour" : "32272.2126356526"
        },
        "miss_distance" : {
          "astronomical" : "0.2733576202",
          "lunar" : "106.3361206055",
          "kilometers" : "40893720",
          "miles" : "25410180"
        },
        "orbiting_body" : "Earth"
      } ],
      "orbital_data" : {
        "orbit_id" : "16",
        "orbit_determination_date" : "2017-04-06 08:55:05",
        "orbit_uncertainty" : "1",
        "minimum_orbit_intersection" : ".0474905",
        "jupiter_tisserand_invariant" : "5.967",
        "epoch_osculation" : "2458000.5",
        "eccentricity" : ".4978206489111902",
        "semi_major_axis" : ".9867742148227755",
        "inclination" : "23.26947741726934",
        "ascending_node_longitude" : "284.7771375925228",
        "orbital_period" : "358.0346967127308",
        "perihelion_distance" : ".4955376348708713",
        "perihelion_argument" : "307.7903466785861",
        "aphelion_distance" : "1.47801079477468",
        "perihelion_time" : "2458145.434945234536",
        "mean_anomaly" : "214.2694862718943",
        "mean_motion" : "1.005489141989068",
        "equinox" : "J2000"
      }
    } ]
  }
}